[{"OBJECT_NAME":"STARLINK-31146","OBJECT_ID":"2024-011E","EPOCH":"2026-03-09T05:57:15.504768","MEAN_MOTION":15.30192179,"ECCENTRICITY":0.00010239,"INCLINATION":53.162,"RA_OF_ASC_NODE":15.6589,"ARG_OF_PERICENTER":93.7105,"MEAN_ANOMALY":266.4012,"EPHEMERIS_TYPE":0,"CLASSIFICATION_TYPE":"U","NORAD_CAT_ID":58769,"ELEMENT_SET_NO":999,"REV_AT_EPOCH":12020,"BSTAR":-1.442369e-6,"MEAN_MOTION_DOT":-4.02e-6,"MEAN_MOTION_DDOT":0},{"OBJECT_NAME":"AZUR (GRS A)","OBJECT_ID":"1969-097A","EPOCH":"2026-03-09T21:41:10.048992","MEAN_MOTION":15.2598686,"ECCENTRICITY":0.02451425,"INCLINATION":102.6572,"RA_OF_ASC_NODE":142.7505,"ARG_OF_PERICENTER":125.1196,"MEAN_ANOMALY":237.3267,"EPHEMERIS_TYPE":0,"CLASSIFICATION_TYPE":"U","NORAD_CAT_ID":4221,"ELEMENT_SET_NO":999,"REV_AT_EPOCH":71023,"BSTAR":0.0010311441,"MEAN_MOTION_DOT":0.00065195,"MEAN_MOTION_DDOT":0}]
